STARLINK-1923
1 16754C 20074R   21326.14287444  .00004085  00000-0  27367-3 0  3266
2 16754  53.0514 163.0993 0002024  72.3848 167.6009 15.06397183    10
